NORAD_CAT_ID,OBJECT_NAME,OBJECT_TYPE,EPOCH,MEAN_MOTION,ECCENTRICITY,INCLINATION,RA_OF_ASC_NODE,ARG_OF_PERICENTER,MEAN_ANOMALY,BSTAR,MEAN_MOTION_DOT,MEAN_MOTION_DDOT,TLE_LINE0,TLE_LINE1,TLE_LINE2,SEMIMAJOR_AXIS,PERIOD,APOGEE,PERIGEE,DECAYED
49166.0,STARLINK-3089,PAYLOAD,2022-04-25 22:00:00,14.96729002,0.0003231,69.9999,238.2833,271.9317,358.6342,-0.0028173,-0.00032201,0.0,0 STARLINK-3089,1 49166U 21082AN  22115.91667824 -.00032201  00000-0 -28173-2 0  9996,2 49166  69.9999 238.2833 0003231 271.9317 358.6342 14.96729002 35927,6955.148,96.21,579.26,574.766,0.0
49166.0,STARLINK-3089,PAYLOAD,2022-04-26 14:00:01,14.96737116,0.0003273999999999,70.0005,236.6065,269.9422,351.7916,-0.0026297,-0.00030078,0.0,0 STARLINK-3089,1 49166U 21082AN  22116.58335648 -.00030078  00000-0 -26297-2 0  9991,2 49166  70.0005 236.6065 0003274 269.9422 351.7916 14.96737116 36015,6955.123000000001,96.209,579.265,574.711,0.0
49166.0,STARLINK-3089,PAYLOAD,2022-04-26 22:00:00,14.96736811,0.0003222,70.0002,235.768,271.6127,345.6192,-0.0036537,-0.00041686,0.0,0 STARLINK-3089,1 49166U 21082AN  22116.91667824 -.00041686  00000-0 -36537-2 0  9997,2 49166  70.0002 235.7680 0003222 271.6127 345.6192 14.96736811  3541,6955.124,96.209,579.23,574.748,0.0
49166.0,STARLINK-3089,PAYLOAD,2022-04-27 06:00:00,14.96697575,0.000324,70.0006,234.9297,266.1982,346.5905,0.0054011,0.00062254,0.0,0 STARLINK-3089,1 49166U 21082AN  22117.25001157  .00062254  00000-0  54011-2 0  9995,2 49166  70.0006 234.9297 0003240 266.1982 346.5905 14.96697575 36112,6955.246,96.212,579.364,574.857,0.0
49166.0,STARLINK-3089,PAYLOAD,2022-04-27 14:00:01,14.96731707,0.0003226,70.0009,234.0914,270.426,337.9716,-0.0022391,-0.00025637,0.0,0 STARLINK-3089,1 49166U 21082AN  22117.58335648 -.00025637  00000-0 -22391-2 0  9998,2 49166  70.0009 234.0914 0003226 270.4260 337.9716 14.96731707 36168,6955.14,96.21,579.249,574.761,0.0
49166.0,STARLINK-3089,PAYLOAD,2022-04-28 06:00:00,14.96707735,0.0003151,70.0011,232.4148,266.6858,332.7749,0.0053846,0.00062078,0.0,0 STARLINK-3089,1 49166U 21082AN  22118.25001157  .00062078  00000-0  53846-2 0  9995,2 49166  70.0011 232.4148 0003151 266.6858 332.7749 14.96707735 36263,6955.214,96.211,579.271,574.888,0.0
49166.0,STARLINK-3089,PAYLOAD,2022-04-28 14:00:01,14.967432999999998,0.0003143,70.0012,231.5765,271.6009,323.4219,-0.0025137,-0.00028765,0.0,0 STARLINK-3089,1 49166U 21082AN  22118.58334491 -.00028765  00000-0 -25137-2 0  9990,2 49166  70.0012 231.5765 0003143 271.6009 323.4219 14.96743300 36317,6955.104,96.209,579.155,574.783,0.0
49166.0,STARLINK-3089,PAYLOAD,2022-04-29 14:00:01,14.96686213,0.000305,70.0014,229.0616,272.3568,309.3291,0.0018589,0.00021234,0.0,0 STARLINK-3089,1 49166U 21082AN  22119.58334491  .00021234  00000-0  18589-2 0  9996,2 49166  70.0014 229.0616 0003050 272.3568 309.3291 14.96686213 36469,6955.281,96.213,579.2669999999998,575.024,0.0
49166.0,STARLINK-3089,PAYLOAD,2022-04-29 22:00:00,14.96733596,0.0003061,70.0011,228.2233,272.6521,304.5492,-0.0070229,-0.00079602,0.0,0 STARLINK-3089,1 49166U 21082AN  22119.91667824 -.00079602  00000-0 -70229-2 0  9995,2 49166  70.0011 228.2233 0003061 272.6521 304.5492 14.96733596  3580,6955.134,96.21,579.128,574.87,0.0
49166.0,STARLINK-3089,PAYLOAD,2022-04-30 06:00:00,14.96674859,0.0003132,70.0014,227.385,266.897,305.8358,0.0043148,0.00049595,0.0,0 STARLINK-3089,1 49166U 21082AN  22120.25001157  .00049595  00000-0  43148-2 0  9991,2 49166  70.0014 227.3850 0003132 266.8970 305.8358 14.96674859 36565,6955.316,96.213,579.359,575.003,0.0
49166.0,STARLINK-3089,PAYLOAD,2022-04-30 14:00:01,14.96686442,0.0003183,70.0016,226.5467,272.1819,296.0685,0.0016329,0.00018634,0.0,0 STARLINK-3089,1 49166U 21082AN  22120.58334491  .00018634  00000-0  16329-2 0  9998,2 49166  70.0016 226.5467 0003183 272.1819 296.0685 14.96686442 36611,6955.28,96.213,579.359,574.931,0.0
49166.0,STARLINK-3089,PAYLOAD,2022-04-30 22:00:00,14.96729057,0.0003172,70.0012,225.7083,271.5114,292.2625,-0.0034691,-0.00039588,0.0,0 STARLINK-3089,1 49166U 21082AN  22120.91667824 -.00039588  00000-0 -34691-2 0  9999,2 49166  70.0012 225.7083 0003172 271.5114 292.2625 14.96729057  3549,6955.148,96.21,579.219,574.807,0.0
49166.0,STARLINK-3089,PAYLOAD,2022-05-01 14:00:01,14.96721738,0.0003196,70.0015,224.0318,271.3329,283.5370000000001,-0.0025485,-0.00029145,0.0,0 STARLINK-3089,1 49166U 21082AN  22121.58334491 -.00029145  00000-0 -25485-2 0  9993,2 49166  70.0015 224.0318 0003196 271.3329 283.5370 14.96721738  3567,6955.170999999999,96.21,579.259,574.813,0.0
49166.0,STARLINK-3089,PAYLOAD,2022-05-01 22:00:01,14.96721834,0.0003154,70.0012,223.1933,270.5932,279.8798,-0.0037267,-0.00042495,0.0,0 STARLINK-3089,1 49166U 21082AN  22121.91668981 -.00042495  00000-0 -37267-2 0  9998,2 49166  70.0012 223.1933 0003154 270.5932 279.8798 14.96721834 36815,6955.17,96.21,579.229,574.842,0.0
49166.0,STARLINK-3089,PAYLOAD,2022-05-02 14:00:01,14.96702599,0.0003226,70.0014,221.5169,271.1654,270.3261,0.001612,0.00018402,0.0,0 STARLINK-3089,1 49166U 21082AN  22122.58334491  .00018402  00000-0  16120-2 0  9992,2 49166  70.0014 221.5169 0003226 271.1654 270.3261 14.96702599 36917,6955.23,96.211,579.339,574.851,0.0
49166.0,STARLINK-3089,PAYLOAD,2022-05-02 22:00:01,14.96740041,0.0003218,70.0011,220.6785,270.4756,266.616,-0.0036145,-0.00041246,0.0,0 STARLINK-3089,1 49166U 21082AN  22122.91668981 -.00041246  00000-0 -36145-2 0  9996,2 49166  70.0011 220.6785 0003218 270.4756 266.6160 14.96740041  3581,6955.114000000001,96.209,579.217,574.741,0.0
49166.0,STARLINK-3089,PAYLOAD,2022-05-03 14:00:01,14.9672527,0.0003233,70.0012,219.0022,271.6497,256.4998,-0.00024902,-2.941e-05,0.0,0 STARLINK-3089,1 49166U 21082AN  22123.58334491 -.00002941  00000-0 -24902-3 0  9994,2 49166  70.0012 219.0022 0003233 271.6497 256.4998 14.96725270  3583,6955.16,96.21,579.273,574.776,0.0
49166.0,STARLINK-3089,PAYLOAD,2022-05-03 22:00:00,14.96736694,0.0003123,70.0008,218.1639,270.6932,253.0177,-0.0047049,-0.00053562,0.0,0 STARLINK-3089,1 49166U 21082AN  22123.91667824 -.00053562  00000-0 -47049-2 0  9991,2 49166  70.0008 218.1639 0003123 270.6932 253.0177 14.96736694 37113,6955.124,96.209,579.1619999999998,574.817,0.0
49166.0,STARLINK-3089,PAYLOAD,2022-05-04 06:00:02,14.96716824,0.0003133,70.0011,217.3257,266.1435,253.1752,0.0017445,0.00019933,0.0,0 STARLINK-3089,1 49166U 21082AN  22124.25002315  .00019933  00000-0  17445-2 0  9996,2 49166  70.0011 217.3257 0003133 266.1435 253.1752 14.96716824 37161,6955.186,96.211,579.23,574.872,0.0
49166.0,STARLINK-3089,PAYLOAD,2022-05-04 14:00:01,14.96708409,0.0003165,70.0009,216.4875,272.5895,242.2288,0.0023992,0.00027472,0.0,0 STARLINK-3089,1 49166U 21082AN  22124.58334491  .00027472  00000-0  23992-2 0  9996,2 49166  70.0009 216.4875 0003165 272.5895 242.2288 14.96708409  3593,6955.212,96.211,579.278,574.876,0.0
49166.0,STARLINK-3089,PAYLOAD,2022-05-04 20:00:01,14.96760817,0.000317,70.0004,215.8587,272.9678,148.5684,-0.0067071,-0.00076119,0.0,0 STARLINK-3089,1 49166U 21082AN  22124.83335648 -.00076119  00000-0 -67071-2 0  9999,2 49166  70.0004 215.8587 0003170 272.9678 148.5684 14.96760817 37259,6955.05,96.208,579.119,574.71,0.0
49166.0,STARLINK-3089,PAYLOAD,2022-05-04 22:00:01,14.96754138,0.0003156,70.0005,215.6492,270.8605,239.5707,-0.0071723,-0.00081318,0.0,0 STARLINK-3089,1 49166U 21082AN  22124.91668981 -.00081318  00000-0 -71723-2 0  9993,2 49166  70.0005 215.6492 0003156 270.8605 239.5707 14.96754138  3590,6955.07,96.208,579.13,574.74,0.0
49166.0,STARLINK-3089,PAYLOAD,2022-05-05 06:00:00,14.96712901,0.0003236,70.0007,214.8109,266.6453,239.2777,0.0014807,0.00016896,0.0,0 STARLINK-3089,1 49166U 21082AN  22125.25001157  .00016896  00000-0  14807-2 0  9994,2 49166  70.0007 214.8109 0003236 266.6453 239.2777 14.96712901 37314,6955.198,96.211,579.314,574.812,0.0
49166.0,STARLINK-3089,PAYLOAD,2022-05-05 14:00:01,14.96704495,0.0003246,70.0006,213.9726,272.7866,228.6864,0.0015408,0.00017584,0.0,0 STARLINK-3089,1 49166U 21082AN  22125.58334491  .00017584  00000-0  15408-2 0  9993,2 49166  70.0006 213.9726 0003246 272.7866 228.6864 14.96704495  3596,6955.224,96.211,579.347,574.832,0.0
49166.0,STARLINK-3089,PAYLOAD,2022-05-05 22:00:00,14.96729304,0.0003159,70.0002,213.1342,270.5307,226.4898,-0.0054952,-0.00062452,0.0,0 STARLINK-3089,1 49166U 21082AN  22125.91667824 -.00062452  00000-0 -54952-2 0  9992,2 49166  70.0002 213.1342 0003159 270.5307 226.4898 14.96729304 37414,6955.147,96.21,579.2090000000002,574.815,0.0
49166.0,STARLINK-3089,PAYLOAD,2022-05-06 14:00:01,14.96691097,0.0003211,70.0004,211.4576,271.985,216.1028,0.0022897,0.00026198,0.0,0 STARLINK-3089,1 49166U 21082AN  22126.58334491  .00026198  00000-0  22897-2 0  9995,2 49166  70.0004 211.4576 0003211 271.9850 216.1028 14.96691097  3593,6955.266,96.212,579.364,574.8969999999998,0.0
49166.0,STARLINK-3089,PAYLOAD,2022-05-06 16:00:00,14.96686723,0.0003239,70.0003,211.2479,272.9445,304.0284,0.003958,0.00045473,0.0,0 STARLINK-3089,1 49166U 21082AN  22126.66667824  .00045473  00000-0  39580-2 0  9997,2 49166  70.0003 211.2479 0003239 272.9445 304.0284 14.96686723 37524,6955.279,96.213,579.3969999999998,574.891,0.0
49166.0,STARLINK-3089,PAYLOAD,2022-05-07 06:00:02,14.96720917,0.0003263,70.0005,209.7809,265.6175,213.5955,0.00044219,4.974e-05,0.0,0 STARLINK-3089,1 49166U 21082AN  22127.25002315  .00004974  00000-0  44219-3 0  9998,2 49166  70.0005 209.7809 0003263 265.6175 213.5955 14.96720917 37614,6955.1730000000025,96.21,579.308,574.769,0.0
49166.0,STARLINK-3089,PAYLOAD,2022-05-07 14:00:01,14.96705469,0.0003303,70.0004,208.9426,271.5172,203.1947,0.0024886999999999,0.00028503,0.0,0 STARLINK-3089,1 49166U 21082AN  22127.58334491  .00028503  00000-0  24887-2 0  9999,2 49166  70.0004 208.9426 0003303 271.5172 203.1947 14.96705469  3587,6955.221,96.211,579.383,574.789,0.0
